[
  {
    "name": "STARLINK-30939",
    "noradId": "58393",
    "line1": "1 58393U 23178V   26171.36096199  .00000240  00000+0  18245-4 0  9998",
    "line2": "2 58393  53.1600 242.5614 0001257  89.8454 270.2692 15.34391869145504"
  },
  {
    "name": "STARLINK-30887",
    "noradId": "58394",
    "line1": "1 58394U 23178W   26171.39670703 -.00000062  00000+0  93059-5 0  9991",
    "line2": "2 58394  53.1601 242.6120 0001144  79.5577 280.5555 15.34389782145611"
  },
  {
    "name": "STARLINK-30934",
    "noradId": "58395",
    "line1": "1 58395U 23178X   26171.44083323 -.00003855  00000+0 -10298-3 0  9990",
    "line2": "2 58395  53.1599 242.4251 0001178  86.0899 274.0239 15.34413983145571"
  },
  {
    "name": "STARLINK-30964",
    "noradId": "58402",
    "line1": "1 58402U 23180A   26171.45976020 -.00002520  00000+0 -82092-4 0  9998",
    "line2": "2 58402  43.0039 192.1348 0001796 275.2827  84.7819 15.27571173143345"
  },
  {
    "name": "STARLINK-30844",
    "noradId": "58403",
    "line1": "1 58403U 23180B   26171.09185106 -.00005805  00000+0 -20147-3 0  9997",
    "line2": "2 58403  43.0017 194.5370 0001572 269.8884  90.1788 15.27597281143161"
  },
  {
    "name": "STARLINK-30876",
    "noradId": "58404",
    "line1": "1 58404U 23180C   26171.41492866 -.00003893  00000+0 -13197-3 0  9990",
    "line2": "2 58404  43.0000 192.6589 0002170 279.9150  80.1456 15.27583499143334"
  },
  {
    "name": "STARLINK-30952",
    "noradId": "58405",
    "line1": "1 58405U 23180D   26171.33927683  .00002951  00000+0  11672-3 0  9990",
    "line2": "2 58405  43.0003 192.9519 0001017 295.5465  64.5281 15.27575486143212"
  },
  {
    "name": "STARLINK-30925",
    "noradId": "58406",
    "line1": "1 58406U 23180E   26171.34183448  .00001524  00000+0  64881-4 0  9991",
    "line2": "2 58406  42.9999 192.9691 0001652 274.7069  85.3594 15.27581517143209"
  },
  {
    "name": "STARLINK-30954",
    "noradId": "58407",
    "line1": "1 58407U 23180F   26171.12639948  .00001556  00000+0  66057-4 0  9991",
    "line2": "2 58407  43.0041 193.9353 0001434 274.3136  85.7552 15.27578550143295"
  },
  {
    "name": "STARLINK-30906",
    "noradId": "58408",
    "line1": "1 58408U 23180G   26171.36830287 -.00000943  00000+0 -24755-4 0  9997",
    "line2": "2 58408  42.9997 196.4075 0001499 271.4364  88.6315 15.27579050143177"
  },
  {
    "name": "STARLINK-30940",
    "noradId": "58409",
    "line1": "1 58409U 23180H   26171.36000176  .00001295  00000+0  56586-4 0  9990",
    "line2": "2 58409  43.0044  47.6391 0001580 272.0618  88.0053 15.27568798145038"
  },
  {
    "name": "STARLINK-30933",
    "noradId": "58410",
    "line1": "1 58410U 23180J   26171.37142191  .00000492  00000+0  27414-4 0  9993",
    "line2": "2 58410  43.0009  46.8573 0001070 279.4838  80.5892 15.27576051145043"
  },
  {
    "name": "STARLINK-30919",
    "noradId": "58411",
    "line1": "1 58411U 23180K   26171.36737840  .00001961  00000+0  80803-4 0  9997",
    "line2": "2 58411  43.0023 192.2280 0001083 277.5371  82.5358 15.27568133143236"
  },
  {
    "name": "STARLINK-30924",
    "noradId": "58412",
    "line1": "1 58412U 23180L   26171.34059674  .00038972  00000+0  73816-3 0  9995",
    "line2": "2 58412  42.9961  35.3478 0017180 252.9637 106.9340 15.47527623145177"
  },
  {
    "name": "STARLINK-30931",
    "noradId": "58413",
    "line1": "1 58413U 23180M   26171.32259493 -.00001274  00000+0 -36760-4 0  9990",
    "line2": "2 58413  43.0026 181.6786 0001040 271.6091  88.4642 15.27588984143452"
  },
  {
    "name": "STARLINK-30922",
    "noradId": "58414",
    "line1": "1 58414U 23180N   26171.41106796 -.00002811  00000+0 -92616-4 0  9998",
    "line2": "2 58414  43.0002 192.6139 0001248 277.4702  82.6008 15.27599838143333"
  },
  {
    "name": "STARLINK-30949",
    "noradId": "58415",
    "line1": "1 58415U 23180P   26171.33540488  .00001692  00000+0  70982-4 0  9996",
    "line2": "2 58415  43.0010 192.8921 0001665 287.1400  72.9270 15.27588815143325"
  },
  {
    "name": "STARLINK-30967",
    "noradId": "58416",
    "line1": "1 58416U 23180Q   26171.13539357  .00000555  00000+0  29717-4 0  9995",
    "line2": "2 58416  43.0028 193.9892 0001958 278.4079  81.6551 15.27579771143290"
  },
  {
    "name": "STARLINK-30955",
    "noradId": "58417",
    "line1": "1 58417U 23180R   26171.36481369  .00000320  00000+0  21151-4 0  9994",
    "line2": "2 58417  43.0004 192.2707 0001153 273.4746  86.5974 15.27577741143338"
  },
  {
    "name": "STARLINK-30895",
    "noradId": "58418",
    "line1": "1 58418U 23180S   26171.45588360  .00002299  00000+0  92988-4 0  9997",
    "line2": "2 58418  43.0033 192.1079 0001637 273.0447  87.0218 15.27603342143236"
  },
  {
    "name": "STARLINK-30917",
    "noradId": "58419",
    "line1": "1 58419U 23180T   26171.45674464 -.00000136  00000+0  45994-5 0  9994",
    "line2": "2 58419  43.0040  83.3838 0001364 262.1186  97.9511 15.27578388144615"
  },
  {
    "name": "STARLINK-30899",
    "noradId": "58420",
    "line1": "1 58420U 23180U   26171.04561208 -.00001367  00000+0 -40182-4 0  9993",
    "line2": "2 58420  43.0034 194.1857 0001387 266.0369  94.0324 15.27561472143168"
  },
  {
    "name": "STARLINK-30902",
    "noradId": "58421",
    "line1": "1 58421U 23180V   26171.32769965  .00000510  00000+0  28062-4 0  9995",
    "line2": "2 58421  43.0018 192.8586 0001796 275.6300  84.4347 15.27578335143210"
  },
  {
    "name": "STARLINK-30912",
    "noradId": "58422",
    "line1": "1 58422U 23180W   26170.99273725  .00000503  00000+0  27804-4 0  9997",
    "line2": "2 58422  43.0061  52.5441 0001670 253.9343 106.1325 15.27574889144947"
  },
  {
    "name": "STARLINK-30900",
    "noradId": "58423",
    "line1": "1 58423U 23180X   26171.12510944  .00000282  00000+0  19790-4 0  9990",
    "line2": "2 58423  43.0033 193.8717 0001556 265.2501  94.8173 15.27576612143182"
  },
  {
    "name": "STARLINK-30908",
    "noradId": "58424",
    "line1": "1 58424U 23180Y   26171.12766694  .00001614  00000+0  68177-4 0  9999",
    "line2": "2 58424  43.0037 193.8494 0001703 275.3897  84.6760 15.27580398143290"
  }
]