OBJECT_NAME,OBJECT_ID,EPOCH,MEAN_MOTION,ECCENTRICITY,INCLINATION,RA_OF_ASC_NODE,ARG_OF_PERICENTER,MEAN_ANOMALY,EPHEMERIS_TYPE,CLASSIFICATION_TYPE,NORAD_CAT_ID,ELEMENT_SET_NO,REV_AT_EPOCH,BSTAR,MEAN_MOTION_DOT,MEAN_MOTION_DDOT
STARLINK-30939,2023-178V,2026-06-20T08:39:47.115936,15.34391869,.0001257,53.1600,242.5614,89.8454,270.2692,0,U,58393,999,14550,.18245E-4,.24E-5,0
STARLINK-30887,2023-178W,2026-06-20T09:31:15.487392,15.34389782,.0001144,53.1601,242.6120,79.5577,280.5555,0,U,58394,999,14561,.93059E-5,-.62E-6,0
STARLINK-30934,2023-178X,2026-06-20T10:34:47.991072,15.34413983,.0001178,53.1599,242.4251,86.0899,274.0239,0,U,58395,999,14557,-.10298E-3,-.3855E-4,0
STARLINK-30964,2023-180A,2026-06-20T11:02:03.281280,15.27571173,.0001796,43.0039,192.1348,275.2827,84.7819,0,U,58402,999,14334,-.82092E-4,-.252E-4,0
STARLINK-30844,2023-180B,2026-06-20T02:12:15.931584,15.27597281,.00015722,43.0017,194.5370,269.8884,90.1788,0,U,58403,999,14316,-.2014705E-3,-.5805E-4,0
STARLINK-30876,2023-180C,2026-06-20T09:57:29.836224,15.27583499,.000217,43.0000,192.6589,279.9150,80.1456,0,U,58404,999,14333,-.13197E-3,-.3893E-4,0
STARLINK-30952,2023-180D,2026-06-20T08:08:33.518112,15.27575486,.0001017,43.0003,192.9519,295.5465,64.5281,0,U,58405,999,14321,.11672E-3,.2951E-4,0
STARLINK-30925,2023-180E,2026-06-20T08:12:14.499072,15.27581517,.0001652,42.9999,192.9691,274.7069,85.3594,0,U,58406,999,14320,.64881E-4,.1524E-4,0
STARLINK-30954,2023-180F,2026-06-20T03:02:00.915072,15.27578550,.00014344,43.0041,193.9353,274.3136,85.7552,0,U,58407,999,14329,.66057471E-4,.1556E-4,0
STARLINK-30906,2023-180G,2026-06-20T08:50:21.367968,15.27579050,.0001499,42.9997,196.4075,271.4364,88.6315,0,U,58408,999,14317,-.24755E-4,-.943E-5,0
STARLINK-30940,2023-180H,2026-06-20T08:38:24.152064,15.27568798,.000158,43.0044,47.6391,272.0618,88.0053,0,U,58409,999,14503,.56586E-4,.1295E-4,0
STARLINK-30933,2023-180J,2026-06-20T08:54:50.853024,15.27576051,.000107,43.0009,46.8573,279.4838,80.5892,0,U,58410,999,14504,.27414E-4,.492E-5,0
STARLINK-30919,2023-180K,2026-06-20T08:49:01.493760,15.27568133,.0001083,43.0023,192.2280,277.5371,82.5358,0,U,58411,999,14323,.80803E-4,.1961E-4,0
STARLINK-30924,2023-180L,2026-06-20T08:10:27.558336,15.47527623,.001718,42.9961,35.3478,252.9637,106.9340,0,U,58412,999,14517,.73816E-3,.38972E-3,0
STARLINK-30931,2023-180M,2026-06-20T07:44:32.201952,15.27588984,.000104,43.0026,181.6786,271.6091,88.4642,0,U,58413,999,14345,-.3676E-4,-.1274E-4,0
STARLINK-30922,2023-180N,2026-06-20T09:51:56.271744,15.27599838,.0001248,43.0002,192.6139,277.4702,82.6008,0,U,58414,999,14333,-.92616E-4,-.2811E-4,0
STARLINK-30949,2023-180P,2026-06-20T08:02:58.981632,15.27588815,.0001665,43.0010,192.8921,287.1400,72.9270,0,U,58415,999,14332,.70982E-4,.1692E-4,0
STARLINK-30967,2023-180Q,2026-06-20T03:14:58.004448,15.27579771,.00019583,43.0028,193.9892,278.4079,81.6551,0,U,58416,999,14329,.29717488E-4,.555E-5,0
STARLINK-30955,2023-180R,2026-06-20T08:45:19.902816,15.27577741,.0001153,43.0004,192.2707,273.4746,86.5974,0,U,58417,999,14333,.21151E-4,.32E-5,0
STARLINK-30895,2023-180S,2026-06-20T10:56:28.343040,15.27603342,.0001637,43.0033,192.1079,273.0447,87.0218,0,U,58418,999,14323,.92988E-4,.2299E-4,0
STARLINK-30917,2023-180T,2026-06-20T10:57:42.736896,15.27578388,.0001364,43.0040,83.3838,262.1186,97.9511,0,U,58419,999,14461,.45994E-5,-.136E-5,0
STARLINK-30899,2023-180U,2026-06-20T01:05:40.883712,15.27561472,.00013876,43.0034,194.1857,266.0369,94.0324,0,U,58420,999,14316,-.40181948E-4,-.1367E-4,0
STARLINK-30902,2023-180V,2026-06-20T07:51:53.249760,15.27578335,.0001796,43.0018,192.8586,275.6300,84.4347,0,U,58421,999,14321,.28062E-4,.51E-5,0
STARLINK-30912,2023-180W,2026-06-19T23:49:32.498400,15.27574889,.00016708,43.0061,52.5441,253.9343,106.1325,0,U,58422,999,14494,.27803998E-4,.503E-5,0
STARLINK-30900,2023-180X,2026-06-20T03:00:09.455616,15.27576612,.00015562,43.0033,193.8717,265.2501,94.8173,0,U,58423,999,14318,.1978969E-4,.282E-5,0
STARLINK-30908,2023-180Y,2026-06-20T03:03:50.423616,15.27580398,.00017038,43.0037,193.8494,275.3897,84.6760,0,U,58424,999,14329,.68177463E-4,.1614E-4,0
